[{"OBJECT_NAME":"STARLINK-3688","OBJECT_ID":"2022-041BB","EPOCH":"2026-03-09T12:00:29.064096","MEAN_MOTION":15.0883643,"ECCENTRICITY":0.00013777,"INCLINATION":53.2173,"RA_OF_ASC_NODE":90.0368,"ARG_OF_PERICENTER":69.9089,"MEAN_ANOMALY":290.2052,"EPHEMERIS_TYPE":0,"CLASSIFICATION_TYPE":"U","NORAD_CAT_ID":52310,"ELEMENT_SET_NO":999,"REV_AT_EPOCH":21583,"BSTAR":8.18945e-7,"MEAN_MOTION_DOT":-2.75e-6,"MEAN_MOTION_DDOT":0},{"OBJECT_NAME":"RAISE-4","OBJECT_ID":"2025-297B","EPOCH":"2026-03-09T23:25:57.718272","MEAN_MOTION":15.08174958,"ECCENTRICITY":0.00127133,"INCLINATION":97.4953,"RA_OF_ASC_NODE":219.2703,"ARG_OF_PERICENTER":22.7159,"MEAN_ANOMALY":337.4629,"EPHEMERIS_TYPE":0,"CLASSIFICATION_TYPE":"U","NORAD_CAT_ID":67073,"ELEMENT_SET_NO":999,"REV_AT_EPOCH":1293,"BSTAR":0.00037087145,"MEAN_MOTION_DOT":5.682e-5,"MEAN_MOTION_DDOT":0}]
