STARLINK-3688           
1 52310U 22041BB  26068.50033639 -.00000275  00000+0  81895-6 0  9992
2 52310  53.2173  90.0368 0001377  69.9089 290.2052 15.08836430215836
RAISE-4                 
1 67073U 25297B   26068.97636248  .00005682  00000+0  37087-3 0  9993
2 67073  97.4953 219.2703 0012713  22.7159 337.4629 15.08174958 12933
